NORAD_CAT_ID,OBJECT_NAME,OBJECT_TYPE,EPOCH,MEAN_MOTION,ECCENTRICITY,INCLINATION,RA_OF_ASC_NODE,ARG_OF_PERICENTER,MEAN_ANOMALY,BSTAR,MEAN_MOTION_DOT,MEAN_MOTION_DDOT,TLE_LINE0,TLE_LINE1,TLE_LINE2,SEMIMAJOR_AXIS,PERIOD,APOGEE,PERIGEE,DECAYED
53935.0,STARLINK-5000,PAYLOAD,2023-08-29 19:25:18,15.08834491,0.0001509,53.2177,111.9725,104.2779,255.8381,-6.6389e-06,-3.94e-06,0.0,0 STARLINK-5000,1 53935U 22119BB  23241.80923928 -.00000394  00000-0 -66389-5 0  9998,2 53935  53.2177 111.9725 0001509 104.2779 255.8381 15.08834491 52858,6917.897,95.438,540.806,538.718,0.0
53935.0,STARLINK-5000,PAYLOAD,2023-08-30 01:46:50,15.0884271,0.0001425,53.2172,110.7816,97.5257,262.5897,5.3718e-05,5.67e-06,0.0,0 STARLINK-5000,1 53935U 22119BB  23242.07419235  .00000567  00000-0  53718-4 0  9990,2 53935  53.2172 110.7816 0001425  97.5257 262.5897 15.08842710 52471,6917.872,95.437,540.723,538.751,0.0
53935.0,STARLINK-5000,PAYLOAD,2023-08-30 08:08:23,15.08837893,0.0001678,53.2167,109.5917,91.2257,268.8927,2.1159e-06,-2.54e-06,0.0,0 STARLINK-5000,1 53935U 22119BB  23242.33915793 -.00000254  00000-0  21159-5 0  9998,2 53935  53.2167 109.5917 0001678  91.2257 268.8927 15.08837893 52518,6917.887,95.438,540.913,538.591,0.0
53935.0,STARLINK-5000,PAYLOAD,2023-08-31 17:31:30,15.08875634,0.0002342,53.2164,103.3518,98.8683,261.2574,-0.00081494,-0.00013248,0.0,0 STARLINK-5000,1 53935U 22119BB  23243.73021372 -.00013248  00000-0 -81494-3 0  9998,2 53935  53.2164 103.3518 0002342  98.8683 261.2574 15.08875634 52722,6917.771,95.435,541.257,538.016,0.0
53935.0,STARLINK-5000,PAYLOAD,2023-08-31 23:53:03,15.0885468,0.0002154,53.2158,102.1616,101.0618,259.0616,-0.0008807,-0.00014283,0.0,0 STARLINK-5000,1 53935U 22119BB  23243.99518215 -.00014283  00000-0 -88070-3 0  9990,2 53935  53.2158 102.1616 0002154 101.0618 259.0616 15.08854680 52761,6917.836,95.437,541.191,538.21,0.0
53935.0,STARLINK-5000,PAYLOAD,2023-09-01 07:49:59,15.08776314,0.0003069,53.2132,100.6746,97.2947,262.8394,0.0010126,0.00015837,0.0,0 STARLINK-5000,1 53935U 22119BB  23244.32637862  .00015837  00000-0  10126-2 0  9998,2 53935  53.2132 100.6746 0003069  97.2947 262.8394 15.08776314 52815,6918.075,95.442,542.063,537.817,0.0
53935.0,STARLINK-5000,PAYLOAD,2023-09-01 20:33:02,15.0884379,0.0001374,53.2162,98.2918,86.6973,273.4176,7.5716e-05,9.17e-06,0.0,0 STARLINK-5000,1 53935U 22119BB  23244.85627955  .00000917  00000-0  75716-4 0  9999,2 53935  53.2162  98.2918 0001374  86.6973 273.4176 15.08843790 52896,6917.869,95.437,540.684,538.783,0.0
53935.0,STARLINK-5000,PAYLOAD,2023-09-02 07:40:45,15.08819551,0.0001301,53.2131,96.2103,118.0228,242.0895,0.0001777,2.54e-05,0.0,0 STARLINK-5000,1 53935U 22119BB  23245.31996956  .00002540  00000-0  17770-3 0  9990,2 53935  53.2131  96.2103 0001301 118.0228 242.0895 15.08819551 52965,6917.943,95.439,540.708,538.908,0.0
53935.0,STARLINK-5000,PAYLOAD,2023-09-02 17:13:03,15.088387,0.0001037,53.2166,94.4227,95.4903,264.6208,4.6638e-05,4.55e-06,0.0,0 STARLINK-5000,1 53935U 22119BB  23245.71740330  .00000455  00000-0  46638-4 0  9996,2 53935  53.2166  94.4227 0001037  95.4903 264.6208 15.08838700 53027,6917.884,95.438,540.467,539.032,0.0
53935.0,STARLINK-5000,PAYLOAD,2023-09-02 20:23:49,15.08842735,0.0001233,53.2157,93.8288,90.9927,269.1207,9.3958e-05,1.208e-05,0.0,0 STARLINK-5000,1 53935U 22119BB  23245.84987958  .00001208  00000-0  93958-4 0  9993,2 53935  53.2157  93.8288 0001233  90.9927 269.1207 15.08842735 53461,6917.872,95.437,540.59,538.884,0.0
53935.0,STARLINK-5000,PAYLOAD,2023-09-03 01:09:58,15.08846984,0.0001165,53.2167,92.9364,90.8263,269.2863,0.00011242,1.502e-05,0.0,0 STARLINK-5000,1 53935U 22119BB  23246.04859556  .00001502  00000-0  11242-3 0  9990,2 53935  53.2167  92.9364 0001165  90.8263 269.2863 15.08846984 53079,6917.859,95.437,540.53,538.918,0.0
53935.0,STARLINK-5000,PAYLOAD,2023-09-03 07:31:31,15.0884565,0.0001193,53.2158,91.7485,82.1551,277.9576,7.0619e-05,8.36e-06,0.0,0 STARLINK-5000,1 53935U 22119BB  23246.31355809  .00000836  00000-0  70619-4 0  9995,2 53935  53.2158  91.7485 0001193  82.1551 277.9576 15.08845650 53532,6917.863,95.437,540.553,538.903,0.0
53935.0,STARLINK-5000,PAYLOAD,2023-09-03 15:28:27,15.08845771,0.0001314,53.2166,90.2626,84.0024,276.1118,8.3802e-06,-1.55e-06,0.0,0 STARLINK-5000,1 53935U 22119BB  23246.64475942 -.00000155  00000-0  83802-5 0  9996,2 53935  53.2166  90.2626 0001314  84.0024 276.1118 15.08845771 53169,6917.863,95.437,540.637,538.819,0.0
53935.0,STARLINK-5000,PAYLOAD,2023-09-04 13:43:51,15.08836189,0.0001405,53.217,86.0982,84.7956,275.3196,2.7336e-05,1.47e-06,0.0,0 STARLINK-5000,1 53935U 22119BB  23247.57212254  .00000147  00000-0  27336-4 0  9993,2 53935  53.2170  86.0982 0001405  84.7956 275.3196 15.08836189 53726,6917.892,95.438,540.729,538.785,0.0
53935.0,STARLINK-5000,PAYLOAD,2023-09-04 20:05:23,15.08838349,0.0001535,53.2167,84.9086,91.6945,268.4223,-3.5226e-06,-3.44e-06,0.0,0 STARLINK-5000,1 53935U 22119BB  23247.83708201 -.00000344  00000-0 -35226-5 0  9993,2 53935  53.2167  84.9086 0001535  91.6945 268.4223 15.08838349 53345,6917.885,95.438,540.812,538.689,0.0
53935.0,STARLINK-5000,PAYLOAD,2023-09-05 13:34:38,15.08834189,0.0001099,53.2173,81.6373,95.2231,264.8887,9.1625e-06,-1.42e-06,0.0,0 STARLINK-5000,1 53935U 22119BB  23248.56572379 -.00000142  00000-0  91625-5 0  9999,2 53935  53.2173  81.6373 0001099  95.2231 264.8887 15.08834189 53870,6917.898,95.438,540.523,539.003,0.0
53935.0,STARLINK-5000,PAYLOAD,2023-09-06 11:50:02,15.08833366,0.0001358,53.218,77.4774,97.3404,262.7742,4.5624e-05,4.38e-06,0.0,0 STARLINK-5000,1 53935U 22119BB  23249.49308558  .00000438  00000-0  45624-4 0  9992,2 53935  53.2180  77.4774 0001358  97.3404 262.7742 15.08833366 53591,6917.901,95.438,540.705,538.826,0.0
53935.0,STARLINK-5000,PAYLOAD,2023-09-06 19:46:58,15.08834786,0.0001364,53.2182,75.9908,97.6863,262.4285,4.0634e-05,3.59e-06,0.0,0 STARLINK-5000,1 53935U 22119BB  23249.82428614  .00000359  00000-0  40634-4 0  9993,2 53935  53.2182  75.9908 0001364  97.6863 262.4285 15.08834786 54063,6917.896,95.438,540.705,538.818,0.0
53935.0,STARLINK-5000,PAYLOAD,2023-09-07 00:33:07,15.08838755,0.0001249,53.2163,75.0963,90.2775,269.836,7.3553e-05,8.83e-06,0.0,0 STARLINK-5000,1 53935U 22119BB  23250.02300301  .00000883  00000-0  73553-4 0  9997,2 53935  53.2163  75.0963 0001249  90.2775 269.8360 15.08838755 54095,6917.884,95.438,540.613,538.885,0.0
53935.0,STARLINK-5000,PAYLOAD,2023-09-07 14:51:35,15.08852952,0.0001611,53.2158,72.4193,100.6278,259.4895,-0.00016546,-2.921e-05,0.0,0 STARLINK-5000,1 53935U 22119BB  23250.61916419 -.00002921  00000-0 -16546-3 0  9990,2 53935  53.2158  72.4193 0001611 100.6278 259.4895 15.08852952 53768,6917.841,95.437,540.82,538.591,0.0
53935.0,STARLINK-5000,PAYLOAD,2023-09-07 21:13:08,15.08842529,0.0001358,53.2157,71.2294,94.6234,265.4913,4.3028e-05,3.97e-06,0.0,0 STARLINK-5000,1 53935U 22119BB  23250.88412277  .00000397  00000-0  43028-4 0  9991,2 53935  53.2157  71.2294 0001358  94.6234 265.4913 15.08842529 54227,6917.873,95.437,540.677,538.798,0.0
53935.0,STARLINK-5000,PAYLOAD,2023-09-08 16:17:46,15.08839795,0.0001504,53.2155,67.6616,86.9373,273.1791,4.2381e-05,3.87e-06,0.0,0 STARLINK-5000,1 53935U 22119BB  23251.67900546  .00000387  00000-0  42381-4 0  9990,2 53935  53.2155  67.6616 0001504  86.9373 273.1791 15.08839795 53920,6917.881,95.438,540.786,538.706,0.0
53935.0,STARLINK-5000,PAYLOAD,2023-09-08 21:03:55,15.08841134,0.0001586,53.2159,66.7699,73.8963,286.2203,6.537e-05,7.53e-06,0.0,0 STARLINK-5000,1 53935U 22119BB  23251.87772476  .00000753  00000-0  65370-4 0  9991,2 53935  53.2159  66.7699 0001586  73.8963 286.2203 15.08841134 54378,6917.877,95.437,540.839,538.645,0.0
53935.0,STARLINK-5000,PAYLOAD,2023-09-09 11:22:23,15.08843331,0.0001882,53.2162,64.0942,71.6005,288.5191,-4.0328e-05,-9.3e-06,0.0,0 STARLINK-5000,1 53935U 22119BB  23252.47388669 -.00000930  00000-0 -40328-4 0  9990,2 53935  53.2162  64.0942 0001882  71.6005 288.5191 15.08843331 54468,6917.87,95.437,541.037,538.433,0.0
53935.0,STARLINK-5000,PAYLOAD,2023-09-09 17:43:56,15.0883672,0.0001556,53.2163,62.9051,83.4864,276.6306,7.8674e-05,9.64e-06,0.0,0 STARLINK-5000,1 53935U 22119BB  23252.73884645  .00000964  00000-0  78674-4 0  9994,2 53935  53.2163  62.9051 0001556  83.4864 276.6306 15.08836720 54087,6917.89,95.438,540.832,538.679,0.0
53935.0,STARLINK-5000,PAYLOAD,2023-09-09 22:30:05,15.08847099,0.0001495,53.2165,62.0123,85.1164,274.9999,6.562e-05,7.57e-06,0.0,0 STARLINK-5000,1 53935U 22119BB  23252.93756024  .00000757  00000-0  65620-4 0  9992,2 53935  53.2165  62.0123 0001495  85.1164 274.9999 15.08847099 54118,6917.859,95.437,540.758,538.689,0.0
53935.0,STARLINK-5000,PAYLOAD,2023-09-10 11:13:10,15.08842343,0.0001374,53.2169,59.6319,86.2742,273.8407,-5.2701e-06,-3.72e-06,0.0,0 STARLINK-5000,1 53935U 22119BB  23253.46748533 -.00000372  00000-0 -52701-5 0  9999,2 53935  53.2169  59.6319 0001374  86.2742 273.8407 15.08842343 54198,6917.873,95.437,540.689,538.788,0.0
53935.0,STARLINK-5000,PAYLOAD,2023-09-10 22:20:51,15.08849957,0.0001343,53.2177,57.5496,92.2578,267.8568,5.9512e-05,6.6e-06,0.0,0 STARLINK-5000,1 53935U 22119BB  23253.93115646  .00000660  00000-0  59512-4 0  9998,2 53935  53.2177  57.5496 0001343  92.2578 267.8568 15.08849957 54267,6917.85,95.437,540.644,538.786,0.0
53935.0,STARLINK-5000,PAYLOAD,2023-09-11 14:14:44,15.08832931,0.0001542,53.2185,54.5764,92.9483,267.1686,-2.8748e-05,-7.45e-06,0.0,0 STARLINK-5000,1 53935U 22119BB  23254.59357081 -.00000745  00000-0 -28748-4 0  9995,2 53935  53.2185  54.5764 0001542  92.9483 267.1686 15.08832931 54789,6917.902,95.438,540.834,538.7,0.0
53935.0,STARLINK-5000,PAYLOAD,2023-09-11 17:25:30,15.08840273,0.0001441,53.2182,53.981,91.1232,268.9925,-1.8741e-05,-5.86e-06,0.0,0 STARLINK-5000,1 53935U 22119BB  23254.72604628 -.00000586  00000-0 -18741-4 0  9997,2 53935  53.2182  53.9810 0001441  91.1232 268.9925 15.08840273 54381,6917.88,95.438,540.741,538.748,0.0
